HORYU-4                 
1 41340U 16012D   19336.85154661  .00000350  00000-0  19813-4 0  9994
2 41340  31.0036 150.0559 0014042 346.7587  13.2679 15.01369134208150
E-ST@R-II               
1 41459U 16025D   19336.88214743  .00002797  00000-0  14442-3 0  9999
2 41459  98.0999  71.8024 0167355 156.2341 204.6716 15.05878734197708
AAUSAT 4                
1 41460U 16025E   19336.90703354  .00001751  00000-0  89979-4 0  9992
2 41460  98.0950  73.5175 0156855 147.0105 214.0995 15.07935092197866
DIWATA-1                
1 41463U 98067HT  19336.72270530  .00040173  11772-4  13134-3 0  9998
2 41463  51.6282  94.3144 0000451 340.1055 161.3376 15.91528769206274
BEESAT-4                
1 41619U 16040W   19336.89179133  .00001133  00000-0  50304-4 0  9999
2 41619  97.3479  35.8442 0012120 148.7106 211.4855 15.23509592179319
CANX-7                  
1 41788U 16059F   19336.76258205  .00006814  00000-0  99409-3 0  9999
2 41788  98.2482  55.1065 0032087 197.5604 162.4447 14.75766514170638
RAVAN                   
1 41849U 16067B   19336.75231184  .00000416  00000-0  40027-4 0  9997
2 41849  97.9250  78.4256 0008935 178.2880 181.8374 14.98376189167014
CELTEE 1                
1 41850U 16067C   19336.70465273  .00000761  00000-0  71238-4 0  9993
2 41850  97.9219  76.6573 0008887 175.8898 184.2397 14.97089068166917
OPTICUBE 04             
1 41851U 16067D   19336.73660825 -.00000253  00000-0 -16762-4 0  9996
2 41851  97.9205  76.4088 0008778 181.7803 178.3388 14.96856636166908
AEROCUBE 8D             
1 41852U 16067E   19336.74793532  .00000243  00000-0  26516-4 0  9995
2 41852  97.9212  76.2468 0009756 181.8555 178.2631 14.96797330166881
AEROCUBE 8C             
1 41853U 16067F   19336.70798962  .00000565  00000-0  54680-4 0  9994
2 41853  97.9221  76.1289 0009928 181.0120 179.1083 14.96768677166875
PROMETHEUS 2-1          
1 41854U 16067G   19336.71589311  .00000265  00000-0  28292-4 0  9999
2 41854  97.9231  76.3512 0010161 180.9658 179.1545 14.97031436166884
PROMETHEUS 2-3          
1 41855U 16067H   19336.71756830  .00000178  00000-0  20739-4 0  9993
2 41855  97.9233  76.3758 0010301 181.8221 178.2965 14.97038542166882
INS-1B                  
1 41954U 17008G   19336.91449962  .00001026  00000-0  44880-4 0  9992
2 41954  97.3813  39.6136 0007489 278.2891  81.7497 15.24308371155279
BGUSAT                  
1 41999U 17008BD  19336.65047246  .00001794  00000-0  71050-4 0  9992
2 41999  97.3903  42.4704 0006498 293.2909  66.7645 15.26711115154764
DIDO-2                  
1 42000U 17008BE  19336.91397206  .00000705  00000-0  31866-4 0  9991
2 42000  97.3825  40.1622 0007009 301.6903  58.3651 15.24155907154675
PEASSS                  
1 42015U 17008BV  19336.90022820  .00000930  00000-0  39924-4 0  9996
2 42015  97.3839  41.3779 0004970 310.1630  49.9172 15.25188270155235
AL-FARABI 1             
1 42016U 17008BW  19336.62885026  .00001210  00000-0  50022-4 0  9995
2 42016  97.3859  41.8563 0004829 310.4233  49.6584 15.25908004155351
NAYIF-1 (EO-88)         
1 42017U 17008BX  19336.87486165  .00001240  00000-0  51132-4 0  9990
2 42017  97.3856  42.1106 0004831 309.4173  50.6637 15.25945467155412
ALTAIR PATHFINDER       
1 42711U 98067LS  19336.56682373  .00850012  11831-4  45366-3 0  9998
2 42711  51.6215 131.9684 0006773 304.5819  55.4559 16.19197575145646
NSIGHT                  
1 42726U 98067MF  19336.78462680  .00034918  00000-0  18321-3 0  9997
2 42726  51.6309 169.4805 0004197 133.4404 226.6947 15.80407121144150
UCLSAT                  
1 42765U 17036A   19336.89285970  .00000997  00000-0  45179-4 0  9996
2 42765  97.3304  31.1571 0011523  10.4803 349.6672 15.23078757136505
LITUANICASAT-2          
1 42768U 17036D   19336.85573641  .00001499  00000-0  65910-4 0  9993
2 42768  97.3348  30.8441 0014654 358.7328   1.3869 15.23339781135759
AALTO-1                 
1 42775U 17036L   19336.78327050  .00000600  00000-0  29582-4 0  9992
2 42775  97.3284  29.3969 0013808   1.1582 358.9684 15.21556890135616
URSA MAIOR              
1 42776U 17036M   19336.92582912  .00000657  00000-0  31990-4 0  9997
2 42776  97.3294  29.7409 0013603   0.6198 359.5052 15.21710170135643
COMPASS 2               
1 42777U 17036N   19336.86839855  .00001312  00000-0  58103-4 0  9996
2 42777  97.3342  31.3202 0012233   1.2664 358.8602 15.23333993135718
DIAMOND RED             
1 42783U 17036U   19336.93463690  .00000772  00000-0  36275-4 0  9996
2 42783  97.3303  30.6572 0012239  11.3229 348.8281 15.22473544135694
PEGASUS                 
1 42784U 17036V   19336.87988913  .00000844  00000-0  39018-4 0  9998
2 42784  97.3308  30.9087 0012097  10.8555 349.2941 15.22803782135703
DIAMOND GREEN           
1 42785U 17036W   19336.60486326  .00000800  00000-0  37499-4 0  9994
2 42785  97.3306  30.3645 0012187  13.2302 346.9252 15.22473516135711
DIAMOND BLUE            
1 42786U 17036X   19336.60402462  .00000787  00000-0  36908-4 0  9992
2 42786  97.3306  30.3606 0012030  13.5154 346.6403 15.22473197135714
NUDTSAT                 
1 42787U 17036Y   19336.89653712  .00001624  00000-0  70025-4 0  9999
2 42787  97.3346  31.9025 0012436   6.2929 353.8463 15.23919642135605
SUCHAI                  
1 42788U 17036Z   19336.90453786  .00001060  00000-0  47606-4 0  9994
2 42788  97.3315  31.3526 0011613   9.8952 350.2512 15.23275627135809
SKCUBE                  
1 42789U 17036AA  19336.86669114  .00000987  00000-0  44650-4 0  9997
2 42789  97.3310  31.2223 0011509  10.3720 349.7752 15.23151516135711
VZLUSAT-1               
1 42790U 17036AB  19336.88405027  .00001231  00000-0  53804-4 0  9996
2 42790  97.3329  31.8871 0010966   9.1377 351.0058 15.23907023135759
ROBUSTA-1B              
1 42792U 17036AD  19336.58152835  .00000989  00000-0  44513-4 0  9997
2 42792  97.3313  31.1363 0011123  12.2605 347.8901 15.23329535135697
CICERO 6                
1 42793U 17036AE  19336.88739712  .00000672  00000-0  31653-4 0  9996
2 42793  97.3291  31.0702 0010460  13.8574 346.2948 15.22820657135799
D-SAT                   
1 42794U 17036AF  19336.89839943  .00000136  00000-0  17442-4 0  9990
2 42794  97.5195  14.0597 0125074 304.6130  54.3344 14.91178848133254
CORVUS BC2              
1 42846U 17042X   19336.67300737 -.00000045  00000-0  78052-6 0  9991
2 42846  97.5455 223.8167 0008691 210.5629 149.5085 14.92032515129915
CORVUS BC1              
1 42847U 17042Y   19336.95031666  .00000016  00000-0  68578-5 0  9993
2 42847  97.5457 224.2168 0008359 208.4535 151.6229 14.92132965129955
MIRATA                  
1 43015U 17073C   19336.91495904  .00001325  00000-0  10850-3 0  9992
2 43015  97.7206 251.6279 0254056 333.0802  25.7413 14.79281537110011
MAKERSAT 0              
1 43016U 17073D   19336.75760151  .00000939  00000-0  78551-4 0  9997
2 43016  97.7241 251.6791 0256426 334.2139  24.6469 14.78952935109988
ASTERIA                 
1 43020U 98067NH  19336.81908779  .00026452  00000-0  14320-3 0  9992
2 43020  51.6391 181.3172 0000771 110.3880 249.7205 15.79885139116187
DELLINGR (RBLE)         
1 43021U 98067NJ  19336.82735988  .00007697  00000-0  79170-4 0  9999
2 43021  51.6360 206.0480 0001925  53.9009 306.2164 15.65981330115859
AEROCUBE 7B (OCSD B)    
1 43042U 17071F   19336.94555124  .00003230  00000-0  83522-4 0  9998
2 43042  51.6384 314.6803 0005149  48.4310 311.7116 15.42191483111883
AEROCUBE 7C (OCSD C)    
1 43043U 17071G   19336.94594268  .00003215  00000-0  83236-4 0  9996
2 43043  51.6384 314.6977 0005406  52.0645 308.0829 15.42171976111856
CHEFSAT                 
1 43044U 17071H   19336.55236927  .00006016  00000-0  13157-3 0  9995
2 43044  51.6392 307.7508 0005316  52.1651 307.9816 15.45601682111913
ASGARDIA 1              
1 43049U 17071N   19336.94965503  .00003044  00000-0  79007-4 0  9997
2 43049  51.6396 314.0206 0003049  67.8916 292.2393 15.42290071111869
ISARA                   
1 43050U 17071P   19336.94838269  .00005087  00000-0  11500-3 0  9999
2 43050  51.6376 307.3248 0003039  65.7552 294.3752 15.44976792111957
PROPCUBE 2 (FAUNA)      
1 43052U 17071R   19336.92211220  .00003012  00000-0  77401-4 0  9990
2 43052  51.6391 313.1060 0002996  65.0947 295.0349 15.42636133111865
CORVUS BC3              
1 43118U 18004H   19336.88924118  .00000618  00000-0  29244-4 0  9993
2 43118  97.4691  43.5398 0011189  33.8613 326.3336 15.23070328104924
MICROMAS-2A             
1 43131U 18004W   19336.61214702  .00001470  00000-0  62482-4 0  9998
2 43131  97.4725  44.3688 0010074  36.0825 324.1090 15.24608011104942
SPACEBEE-4              
1 43139U 18004AE  19336.66398729  .00002033  00000-0  82764-4 0  9994
2 43139  97.4746  45.1781 0009410  38.5394 321.6514 15.25640100104990
SPACEBEE-3              
1 43140U 18004AF  19336.90624875  .00002562  00000-0  10148-3 0  9990
2 43140  97.4756  45.8348 0009068  37.1692 323.0172 15.26314742105059
SPACEBEE-2              
1 43141U 18004AG  19336.92029109  .00002600  00000-0  10224-3 0  9990
2 43141  97.4767  45.9957 0009007  36.6880 323.4973 15.26545914105066
SPACEBEE-1              
1 43142U 18004AH  19336.86216190  .00002768  00000-0  10781-3 0  9995
2 43142  97.4770  46.0974 0008983  37.1121 323.0737 15.26806969105051
CICERO 7                
1 43143U 18004AJ  19336.42587493  .00001467  00000-0  62202-4 0  9996
2 43143  97.4708  44.3928 0008524  46.8866 313.3083 15.24709580104938
GOMX-4B                 
1 43196U 18015E   19336.60850596  .00000360  00000-0  17693-4 0  9998
2 43196  97.4133 102.0424 0020312  81.2861 279.0677 15.24081266101767
GOMX-4A                 
1 43197U 18015F   19336.80426078  .00000726  00000-0  32593-4 0  9997
2 43197  97.4135 102.2769 0020770  81.3492  75.9844 15.24213154101800
1KUNS-PF                
1 43466U 98067NP  19336.81664794  .00025338  00000-0  17784-3 0  9991
2 43466  51.6327 202.1274 0002282 141.2839 218.8324 15.74011003 89163
